S-NET B                 
1 43187U 18014H   22299.54169594  .00002053  00000+0  17678-3 0  9995
2 43187  97.6449 202.6650 0009889 208.0158 152.0533 14.98402600258540
S-NET A                 
1 43188U 18014J   22299.27488734  .00001974  00000+0  17023-3 0  9991
2 43188  97.6454 202.4747 0009861 209.3152 150.7519 14.98401504258507
S-NET C                 
1 43189U 18014K   22299.47618953  .00002137  00000+0  18391-3 0  9993
2 43189  97.6449 202.5877 0009819 207.9147 152.1550 14.98399161257086
FENGMANIU-1 (FMN-1)     
1 43192U 18015A   22299.45817166  .00053463  00000+0  10476-2 0  9996
2 43192  97.5492  88.9238 0010544 278.7806 116.0680 15.47150028263632
SHAONIAN XING           
1 43199U 18015H   22299.42793858  .00026031  00000+0  67192-3 0  9990
2 43199  97.5294  82.5982 0011544 292.4247 144.3149 15.39068253263552
LUOJIA-1 01             
1 43485U 18048B   22299.52269207  .00001345  00000+0  19494-3 0  9994
2 43485  97.9272  18.6446 0012229 132.3125 227.9129 14.77648197237226
SURFSAT                 
1 43614U 18070B   22299.34595383  .00060371  00000+0  53915-3 0  9990
2 43614  93.0081 154.6287 0006280 188.5699 171.5465 15.68193048231477
CP7 (DAVE)              
1 43615U 18070C   22299.31920071  .00046807  00000+0  47233-3 0  9998
2 43615  93.0075 154.2957 0006704 196.6750 163.4299 15.65184799231419
CZ-4B R/B               
1 43656U 18081B   22299.37407960  .00000216  00000+0  82078-4 0  9999
2 43656  99.4176  83.9174 0208837 128.0954 233.9263 14.30641839209076
CUBEBEL-1 (BSUSAT-1)    
1 43666U 18083E   22299.50092810  .00011962  00000+0  47171-3 0  9995
2 43666  97.4126 326.8272 0010875 225.1583 272.7402 15.25665524221441
CHANGSHAGAOXIN (TY 4-01)
1 43669U 18083H   22299.41975928  .00011013  00000+0  45777-3 0  9995
2 43669  97.4078 322.3196 0007800 222.5991 248.1111 15.23943134221239
TEN-KOH                 
1 43677U 18084G   22299.32270252  .00001703  00000+0  17577-3 0  9995
2 43677  97.9829  70.7287 0015303 196.0344 164.0391 14.91469673217186
DIWATA-2B               
1 43678U 18084H   22299.53836459  .00001273  00000+0  13002-3 0  9997
2 43678  97.9894  74.5031 0009186 206.6254 153.4542 14.92416913217403
STARS-AO                
1 43679U 18084J   22299.34422782  .00002680  00000+0  25577-3 0  9990
2 43679  97.9939  76.5838 0008107 210.3016 149.7735 14.94182370217480
AUTCUBE 2               
1 43681U 18084K   22299.35329135  .00001401  00000+0  13900-3 0  9999
2 43681  97.9901  75.0396 0008582 205.9322 154.1468 14.93430662217383
IRVINE01                
1 43693U 18088D   22299.25115048  .00060695  00000+0  10493-2 0  9994
2 43693  85.0280 221.5040 0008010  27.8268 332.3416 15.50699216220387
ES'HAIL 2               
1 43700U 18090A   22299.43938274  .00000157  00000+0  00000+0 0  9997
2 43700   0.0126 233.4425 0001035 340.3916   4.8882  1.00271827 14343
FACSAT-1                
1 43721U 18096C   22299.43430970  .00028972  00000+0  68003-3 0  9992
2 43721  97.3413  19.4911 0011310 301.7735 187.1079 15.41936305218116
CENTAURI-2              
1 43722U 18096D   22299.18638877  .00035785  00000+0  68905-3 0  9992
2 43722  97.3473  22.1348 0010704 294.1908  65.8223 15.47742268218236
3CAT-1                  
1 43728U 18096K   22299.51703871  .00034881  00000+0  67764-3 0  9990
2 43728  97.3490  23.2370 0010214 295.5166  64.5028 15.47495954218321
INNOSAT-2               
1 43738U 18096V   22299.40657350  .00190319  00000+0  14416-2 0  9993
2 43738  97.3552  32.4073 0011133 270.5065 155.1791 15.71737210218881
REAKTOR HELLO WORLD     
1 43743U 18096AA  22299.19705744  .00011885  00000+0  32422-3 0  9994
2 43743  97.3445  18.7219 0012790 312.2245  47.7914 15.37515026218021
ELYSIUM STAR 2 & LFF    
1 43760U 18099C   22299.48322308  .00005068  00000+0  41117-3 0  9996
2 43760  97.6220   5.2206 0011133 171.4551 188.6864 15.00044451212758
2018-099D               
1 43761U 18099D   22299.56656772  .00000861  00000+0  81286-4 0  9999
2 43761  97.6086   2.7203 0013917 183.8427 176.2689 14.96209646212626
AISTECHSAT 2            
1 43768U 18099L   22299.13431875  .00002275  00000+0  20624-3 0  9993
2 43768  97.6036   0.7392 0011021 181.3718 178.7476 14.96270085212227
FOX-1CLIFF (AO-95)      
1 43770U 18099N   22299.42479989  .00001636  00000+0  14657-3 0  9995
2 43770  97.6071   2.3256 0013590 191.6734 168.4175 14.97094071212605
RANGE-A                 
1 43772U 18099Q   22299.49121394  .00002344  00000+0  20348-3 0  9999
2 43772  97.6197   4.3946 0013258 176.7838 183.3472 14.97924764212645
RANGE-B                 
1 43773U 18099R   22299.12153198  .00002327  00000+0  20943-3 0  9999
2 43773  97.5989   0.6893 0013345 177.7398 182.3887 14.96509644212535
2018-099T               
1 43775U 18099T   22299.11888135  .00001854  00000+0  16832-3 0  9992
2 43775  97.6066   2.0404 0014287 183.5997 176.5125 14.96411423212542
MOVE-II                 
1 43780U 18099Y   22299.45635409  .00004319  00000+0  36217-3 0  9997
2 43780  97.6101   3.8349 0013145 183.2225 176.8915 14.98831455212675
SNUSAT-2                
1 43782U 18099AA  22299.45906191  .00002773  00000+0  24425-3 0  9998
2 43782  97.6069   2.8532 0012598 174.0079 186.1296 14.97213539212637
SNUGLITE                
1 43784U 18099AC  22299.47574209  .00002631  00000+0  23022-3 0  9998
2 43784  97.6044   2.4951 0014262 181.9047 178.2123 14.97499283212661
ITASAT 1                
1 43786U 18099AE  22299.14131689  .00002528  00000+0  22331-3 0  9992
2 43786  97.6107   3.0335 0014490 182.8978 177.2163 14.97155155212606
KAZSCISAT-1             
1 43787U 18099AF  22299.44159822  .00003110  00000+0  26290-3 0  9991
2 43787  97.6004   2.6516 0013801 180.3057 179.8160 14.98715307212714
EAGLET-I                
1 43790U 18099AJ  22299.42614568  .00000951  00000+0  86972-4 0  9990
2 43790  97.6093   3.8560 0012615 186.5928 173.5130 14.97222042212384
ESEO                    
1 43792U 18099AL  22299.41719560  .00000789  00000+0  74358-4 0  9993
2 43792  97.6043   2.8583 0012805 183.7431 176.3697 14.96476915212416
CSIM-FD                 
1 43793U 18099AM  22299.43748056  .00003249  00000+0  26911-3 0  9993
2 43793  97.6113   4.8586 0012406 183.3186 176.7957 14.99485936212509
ASTROCAST 0.1           
1 43798U 18099AS  22299.45495394  .00003188  00000+0  27068-3 0  9990
2 43798  97.6093   4.5746 0012749 163.6403 196.5234 14.98540715212727
JY1SAT (JO-97)          
1 43803U 18099AX  22299.44450054  .00002292  00000+0  19968-3 0  9995
2 43803  97.6049   3.1312 0014676 183.6927 176.4190 14.97791522212678
SUOMI-100               
1 43804U 18099AY  22299.47224630  .00003135  00000+0  27221-3 0  9996
2 43804  97.6064   3.0502 0014488 180.2853 179.8363 14.97665168212684
AL-FARABI 2             
1 43805U 18099AZ  22299.60293308  .00004913  00000+0  41521-3 0  9994
2 43805  97.6080   3.8260 0014678 178.6197 181.5072 14.98443987212732
CENTAURI-1              
1 43809U 18099BD  22299.40070460  .00002599  00000+0  22899-3 0  9993
2 43809  97.6071   3.2505 0014723 182.3974 177.7180 14.97234814212360
CHOMPTT                 
1 43855U 18104G   22299.50700573  .00007048  00000+0  24186-3 0  9992
2 43855  85.0320 323.6566 0017034 109.4218 250.8870 15.29802845214748
DAVINCI                 
1 43857U 18104J   22299.48230655  .00046504  00000+0  84871-3 0  9997
2 43857  85.0202 319.6868 0011154 122.1680 238.0660 15.49167142215057
UWE-4                   
1 43880U 18111E   22299.48201147  .00003336  00000+0  28039-3 0  9995
2 43880  97.6561 203.4746 0009816 231.2091 128.8255 14.98933533209322
ZACUBE-2                
1 43907U 18111AH  22299.44639480  .00011305  00000+0  39103-3 0  9995
2 43907  97.1696 181.1090 0018553 339.6456 194.8832 15.29885870213308
MICRODRAGON             
1 43935U 19003D   22299.52315991  .00005330  00000+0  20003-3 0  9994
2 43935  97.1268 323.7809 0018117  71.7733 288.5477 15.27462377209698
AOBA VELOX-IV           
1 43940U 19003J   22299.36160565  .00027435  00000+0  58095-3 0  9999
2 43940  97.1138 331.8443 0015196  37.9430 322.2887 15.44953514210281
M6P                     
1 44109U 19018AF  22299.21828168  .00016760  00000+0  34935-3 0  9993
2 44109  97.3899  25.0567 0041982  15.9243 344.3314 15.44675387199605
FORMOSAT 7-4            
1 44350U 19036M   22299.42158166  .00003950  00000+0  21374-3 0  9998
2 44350  23.9993 202.2711 0005382 207.2425 152.7797 15.10339126183289
PAINANI 1               
1 44365U 19037A   22299.17097470  .00069136  00000+0  59903-3 0  9994
2 44365  44.9933 342.1034 0009663   3.0864 357.0093 15.68247879187648
METEOR-M2 2             
1 44387U 19038A   22299.57240366  .00000031  00000+0  32901-4 0  9996
2 44387  98.7398 259.3979 0000229 229.9560 130.1587 14.23726622172068
VDNH-80                 
1 44392U 19038G   22299.41417138  .00011524  00000+0  54581-3 0  9994
2 44392  97.6490 270.6232 0020283  44.1099  83.3460 15.19311455182711
D-STAR ONE (LIGHTSAT)   
1 44393U 19038H   22299.46279222  .00009122  00000+0  43136-3 0  9995
2 44393  97.6515 270.5869 0020413  44.9520 315.3363 15.19433928182919
AMGU-1 (AMURSAT)        
1 44394U 19038J   22299.57161433  .00012578  00000+0  58599-3 0  9990
2 44394  97.6484 270.6936 0020124  45.6656 314.6221 15.19861886182933
DOT-1                   
1 44399U 19038P   22299.49382932  .00005550  00000+0  28591-3 0  9996
2 44399  97.6565 269.0301 0023961  50.4597 309.8748 15.16565778182798
SOKRAT                  
1 44404U 19038U   22298.66208473  .00009673  00000+0  45507-3 0  9994
2 44404  97.6503 269.3837 0020711  49.1733 311.1292 15.19587315182773
LUCKY-7                 
1 44406U 19038W   22298.86474931  .00006948  00000+0  35150-3 0  9997
2 44406  97.6548 268.8365 0023504  44.8126 315.5000 15.17113430182726
D-STAR ONE (EXOCONNECT) 
1 44410U 19038AA  22299.47103824  .00017250  00000+0  71513-3 0  9991
2 44410  97.6440 271.6315 0018971  42.5077 317.7624 15.23790788183014
